start=new Date('2021-09-02T00:00:00.000Z').valueOf();
sats=[{"OBJECT_ID":"2020-088M","NORAD_CAT_ID":"47133","EPHEMERIS_TYPE":"0","DECAY_DATE":null,"RA_OF_ASC_NODE":"137.9378","MEAN_ANOMALY":"268.6623","PERIAPSIS":"545.612","MEAN_MOTION_DOT":"0.00001392","REF_FRAME":"TEME","FILE":"3107096","LAUNCH_DATE":"2020-11-25","BSTAR":"0.00011234000000","GP_ID":"183927096","COUNTRY_CODE":"US","MEAN_ELEMENT_THEORY":"SGP4","SEMIMAJOR_AXIS":"6925.365","APOAPSIS":"548.848","PERIOD":"95.592","OBJECT_TYPE":"PAYLOAD","EPOCH":"2021-09-01T21:41:33.956736","ECCENTRICITY":"0.00023370","ELEMENT_SET_NO":"999","REV_AT_EPOCH":"4331","SITE":"AFETR","CENTER_NAME":"EARTH","OBJECT_NAME":"STARLINK-1843","MEAN_MOTION_DDOT":"0.0000000000000","MEAN_MOTION":"15.06394649","TLE_LINE1":"1 47133U 20088M   21244.90386524  .00001392  00000-0  11234-3 0  9995","TIME_SYSTEM":"UTC","CLASSIFICATION_TYPE":"U","INCLINATION":"53.0557","ARG_OF_PERICENTER":"91.4634","TLE_LINE2":"2 47133  53.0557 137.9378 0002337  91.4634 268.6623 15.06394649 43316","RCS_SIZE":"LARGE"},{"COUNTRY_CODE":"US","MEAN_ELEMENT_THEORY":"SGP4","GP_ID":"183927845","BSTAR":"0.00011598000000","LAUNCH_DATE":"2020-11-25","REF_FRAME":"TEME","FILE":"3107096","MEAN_MOTION_DOT":"0.00001445","PERIAPSIS":"544.252","MEAN_ANOMALY":"50.2956","RA_OF_ASC_NODE":"147.9215","EPHEMERIS_TYPE":"0","DECAY_DATE":null,"OBJECT_ID":"2020-088N","NORAD_CAT_ID":"47134","RCS_SIZE":"LARGE","ARG_OF_PERICENTER":"309.7655","TLE_LINE2":"2 47134  53.0558 147.9215 0004288 309.7655  50.2956 15.06397497 43176","TLE_LINE1":"1 47134U 20088N   21244.87712180  .00001445  00000-0  11598-3 0  9995","TIME_SYSTEM":"UTC","CLASSIFICATION_TYPE":"U","INCLINATION":"53.0558","MEAN_MOTION":"15.06397497","OBJECT_NAME":"STARLINK-1844","MEAN_MOTION_DDOT":"0.0000000000000","ELEMENT_SET_NO":"999","REV_AT_EPOCH":"4317","SITE":"AFETR","CENTER_NAME":"EARTH","EPOCH":"2021-09-01T21:03:03.323520","ECCENTRICITY":"0.00042880","PERIOD":"95.592","OBJECT_TYPE":"PAYLOAD","APOAPSIS":"550.191","SEMIMAJOR_AXIS":"6925.356"},{"OBJECT_TYPE":"PAYLOAD","PERIOD":"95.592","EPOCH":"2021-09-01T21:30:56.763648","ECCENTRICITY":"0.00017480","SEMIMAJOR_AXIS":"6925.349","APOAPSIS":"548.425","ARG_OF_PERICENTER":"72.1907","TLE_LINE2":"2 47135  53.0560 137.8168 0001748  72.1907 287.9273 15.06399741 43315","TLE_LINE1":"1 47135U 20088P   21244.89649032  .00001480  00000-0  11821-3 0  9991","TIME_SYSTEM":"UTC","INCLINATION":"53.0560","CLASSIFICATION_TYPE":"U","RCS_SIZE":"LARGE","OBJECT_NAME":"STARLINK-1845","MEAN_MOTION_DDOT":"0.0000000000000","ELEMENT_SET_NO":"999","REV_AT_EPOCH":"4331","CENTER_NAME":"EARTH","SITE":"AFETR","MEAN_MOTION":"15.06399741","MEAN_ANOMALY":"287.9273","RA_OF_ASC_NODE":"137.8168","PERIAPSIS":"546.004","OBJECT_ID":"2020-088P","NORAD_CAT_ID":"47135","EPHEMERIS_TYPE":"0","DECAY_DATE":null,"GP_ID":"183927599","BSTAR":"0.00011821000000","COUNTRY_CODE":"US","MEAN_ELEMENT_THEORY":"SGP4","REF_FRAME":"TEME","FILE":"3107096","MEAN_MOTION_DOT":"0.00001480","LAUNCH_DATE":"2020-11-25"},{"BSTAR":"0.00016680000000","GP_ID":"183876330","COUNTRY_CODE":"US","MEAN_ELEMENT_THEORY":"SGP4","MEAN_MOTION_DOT":"0.00002203","REF_FRAME":"TEME","FILE":"3106942","LAUNCH_DATE":"2020-11-25","RA_OF_ASC_NODE":"151.1143","MEAN_ANOMALY":"292.8833","PERIAPSIS":"545.983","OBJECT_ID":"2020-088Q","NORAD_CAT_ID":"47136","EPHEMERIS_TYPE":"0","DECAY_DATE":null,"TLE_LINE1":"1 47136U 20088Q   21244.16575914  .00002203  00000-0  16680-3 0  9991","TIME_SYSTEM":"UTC","CLASSIFICATION_TYPE":"U","INCLINATION":"53.0534","ARG_OF_PERICENTER":"67.2351","TLE_LINE2":"2 47136  53.0534 151.1143 0001842  67.2351 292.8833 15.06385296 43061","RCS_SIZE":"LARGE","ELEMENT_SET_NO":"999","REV_AT_EPOCH":"4306","SITE":"AFETR","CENTER_NAME":"EARTH","OBJECT_NAME":"STARLINK-1846","MEAN_MOTION_DDOT":"0.0000000000000","MEAN_MOTION":"15.06385296","OBJECT_TYPE":"PAYLOAD","PERIOD":"95.593","EPOCH":"2021-09-01T03:58:41.589696","ECCENTRICITY":"0.00018420","SEMIMAJOR_AXIS":"6925.394","APOAPSIS":"548.534"},{"DECAY_DATE":null,"EPHEMERIS_TYPE":"0","NORAD_CAT_ID":"47137","OBJECT_ID":"2020-088R","PERIAPSIS":"546.054","MEAN_ANOMALY":"290.4599","RA_OF_ASC_NODE":"137.9125","LAUNCH_DATE":"2020-11-25","FILE":"3107096","REF_FRAME":"TEME","MEAN_MOTION_DOT":"0.00001283","MEAN_ELEMENT_THEORY":"SGP4","COUNTRY_CODE":"US","GP_ID":"183926597","BSTAR":"0.00010508000000","APOAPSIS":"548.474","SEMIMAJOR_AXIS":"6925.399","ECCENTRICITY":"0.00017470","EPOCH":"2021-09-01T21:04:26.387616","PERIOD":"95.593","OBJECT_TYPE":"PAYLOAD","MEAN_MOTION":"15.06383486","MEAN_MOTION_DDOT":"0.0000000000000","OBJECT_NAME":"STARLINK-1849","SITE":"AFETR","CENTER_NAME":"EARTH","REV_AT_EPOCH":"4331","ELEMENT_SET_NO":"999","RCS_SIZE":"LARGE","TLE_LINE2":"2 47137  53.0563 137.9125 0001747  69.6578 290.4599 15.06383486 43317","ARG_OF_PERICENTER":"69.6578","INCLINATION":"53.0563","CLASSIFICATION_TYPE":"U","TIME_SYSTEM":"UTC","TLE_LINE1":"1 47137U 20088R   21244.87808319  .00001283  00000-0  10508-3 0  9998"},{"PERIAPSIS":"546.082","RA_OF_ASC_NODE":"143.0510","MEAN_ANOMALY":"292.1222","EPHEMERIS_TYPE":"0","DECAY_DATE":null,"OBJECT_ID":"2020-088S","NORAD_CAT_ID":"47138","COUNTRY_CODE":"US","MEAN_ELEMENT_THEORY":"SGP4","BSTAR":"0.00011696000000","GP_ID":"183927346","LAUNCH_DATE":"2020-11-25","MEAN_MOTION_DOT":"0.00001460","REF_FRAME":"TEME","FILE":"3107096","EPOCH":"2021-09-01T20:17:17.048544","ECCENTRICITY":"0.00016850","PERIOD":"95.593","OBJECT_TYPE":"PAYLOAD","APOAPSIS":"548.416","SEMIMAJOR_AXIS":"6925.384","RCS_SIZE":"LARGE","TIME_SYSTEM":"UTC","TLE_LINE1":"1 47138U 20088S   21244.84533621  .00001460  00000-0  11696-3 0  9993","INCLINATION":"53.0535","CLASSIFICATION_TYPE":"U","ARG_OF_PERICENTER":"67.9945","TLE_LINE2":"2 47138  53.0535 143.0510 0001685  67.9945 292.1222 15.06388311 43249","MEAN_MOTION":"15.06388311","REV_AT_EPOCH":"4324","ELEMENT_SET_NO":"999","SITE":"AFETR","CENTER_NAME":"EARTH","OBJECT_NAME":"STARLINK-1850","MEAN_MOTION_DDOT":"0.0000000000000"},{"REF_FRAME":"TEME","FILE":"3107096","MEAN_MOTION_DOT":"0.00001979","LAUNCH_DATE":"2020-11-25","GP_ID":"183928099","BSTAR":"0.00015178000000","COUNTRY_CODE":"US","MEAN_ELEMENT_THEORY":"SGP4","OBJECT_ID":"2020-088T","NORAD_CAT_ID":"47139","EPHEMERIS_TYPE":"0","DECAY_DATE":null,"MEAN_ANOMALY":"284.4394","RA_OF_ASC_NODE":"152.7781","PERIAPSIS":"545.835","OBJECT_NAME":"STARLINK-1852","MEAN_MOTION_DDOT":"0.0000000000000","ELEMENT_SET_NO":"999","REV_AT_EPOCH":"4310","SITE":"AFETR","CENTER_NAME":"EARTH","MEAN_MOTION":"15.06386672","ARG_OF_PERICENTER":"75.6822","TLE_LINE2":"2 47139  53.0550 152.7781 0002049  75.6822 284.4394 15.06386672 43106","TLE_LINE1":"1 47139U 20088T   21244.90708226  .00001979  00000-0  15178-3 0  9990","TIME_SYSTEM":"UTC","CLASSIFICATION_TYPE":"U","INCLINATION":"53.0550","RCS_SIZE":"LARGE","SEMIMAJOR_AXIS":"6925.389","APOAPSIS":"548.673","OBJECT_TYPE":"PAYLOAD","PERIOD":"95.593","EPOCH":"2021-09-01T21:46:11.907264","ECCENTRICITY":"0.00020490"},{"DECAY_DATE":null,"EPHEMERIS_TYPE":"0","NORAD_CAT_ID":"47140","OBJECT_ID":"2020-088U","PERIAPSIS":"362.697","RA_OF_ASC_NODE":"138.2758","MEAN_ANOMALY":"291.8526","LAUNCH_DATE":"2020-11-25","MEAN_MOTION_DOT":"0.00281480","FILE":"3106942","REF_FRAME":"TEME","MEAN_ELEMENT_THEORY":"SGP4","COUNTRY_CODE":"US","BSTAR":"0.00238170000000","GP_ID":"183876830","APOAPSIS":"364.686","SEMIMAJOR_AXIS":"6741.826","ECCENTRICITY":"0.00014750","EPOCH":"2021-09-01T07:57:04.357152","OBJECT_TYPE":"PAYLOAD","PERIOD":"91.818","MEAN_MOTION":"15.68326358","CENTER_NAME":"EARTH","SITE":"AFETR","ELEMENT_SET_NO":"999","REV_AT_EPOCH":"4326","MEAN_MOTION_DDOT":"0.0000000000000","OBJECT_NAME":"STARLINK-1853","RCS_SIZE":"LARGE","CLASSIFICATION_TYPE":"U","INCLINATION":"53.0527","TIME_SYSTEM":"UTC","TLE_LINE1":"1 47140U 20088U   21244.33130043  .00281480  00000-0  23817-2 0  9990","TLE_LINE2":"2 47140  53.0527 138.2758 0001475  68.2647 291.8526 15.68326358 43269","ARG_OF_PERICENTER":"68.2647"},{"LAUNCH_DATE":"2020-11-25","MEAN_MOTION_DOT":"0.00001382","REF_FRAME":"TEME","FILE":"3107096","COUNTRY_CODE":"US","MEAN_ELEMENT_THEORY":"SGP4","BSTAR":"0.00011165000000","GP_ID":"183927097","EPHEMERIS_TYPE":"0","DECAY_DATE":null,"OBJECT_ID":"2020-088V","NORAD_CAT_ID":"47141","PERIAPSIS":"546.022","RA_OF_ASC_NODE":"137.9625","MEAN_ANOMALY":"268.5701","MEAN_MOTION":"15.06394157","REV_AT_EPOCH":"4331","ELEMENT_SET_NO":"999","CENTER_NAME":"EARTH","SITE":"AFETR","OBJECT_NAME":"STARLINK-1854","MEAN_MOTION_DDOT":"0.0000000000000","RCS_SIZE":"LARGE","TIME_SYSTEM":"UTC","TLE_LINE1":"1 47141U 20088V   21244.85226146  .00001382  00000-0  11165-3 0  9993","CLASSIFICATION_TYPE":"U","INCLINATION":"53.0546","ARG_OF_PERICENTER":"91.5488","TLE_LINE2":"2 47141  53.0546 137.9625 0001747  91.5488 268.5701 15.06394157 43310","APOAPSIS":"548.441","SEMIMAJOR_AXIS":"6925.366","EPOCH":"2021-09-01T20:27:15.390144","ECCENTRICITY":"0.00017470","PERIOD":"95.593","OBJECT_TYPE":"PAYLOAD"},{"LAUNCH_DATE":"2020-11-25","FILE":"3107096","REF_FRAME":"TEME","MEAN_MOTION_DOT":"0.00629257","MEAN_ELEMENT_THEORY":"SGP4","COUNTRY_CODE":"US","GP_ID":"183927846","BSTAR":"0.00173880000000","DECAY_DATE":null,"EPHEMERIS_TYPE":"0","NORAD_CAT_ID":"47142","OBJECT_ID":"2020-088W","PERIAPSIS":"289.766","MEAN_ANOMALY":"24.7316","RA_OF_ASC_NODE":"117.0411","MEAN_MOTION":"15.93307924","MEAN_MOTION_DDOT":"0.0001717900000","OBJECT_NAME":"STARLINK-1855","CENTER_NAME":"EARTH","SITE":"AFETR","ELEMENT_SET_NO":"999","REV_AT_EPOCH":"4360","RCS_SIZE":"LARGE","TLE_LINE2":"2 47142  53.0544 117.0411 0004900 335.3476  24.7316 15.93307924 43609","ARG_OF_PERICENTER":"335.3476","CLASSIFICATION_TYPE":"U","INCLINATION":"53.0544","TIME_SYSTEM":"UTC","TLE_LINE1":"1 47142U 20088W   21244.86211999  .00629257  17179-3  17388-2 0  9992","APOAPSIS":"296.304","SEMIMAJOR_AXIS":"6671.170","ECCENTRICITY":"0.00049000","EPOCH":"2021-09-01T20:41:27.167136","PERIOD":"90.378","OBJECT_TYPE":"PAYLOAD"}];
